start=new Date('2022-07-29T00:00:00.000Z').valueOf();
sats=[{"ELEMENT_SET_NO":"999","GP_ID":"209035426","NORAD_CAT_ID":"52648","EPHEMERIS_TYPE":"0","PERIOD":"92.237","RA_OF_ASC_NODE":"68.2601","PERIAPSIS":"383.243","MEAN_MOTION":"15.61193060","BSTAR":"-0.01360800000000","OBJECT_ID":"2022-052BC","OBJECT_NAME":"STARLINK-3854","APOAPSIS":"385.180","MEAN_MOTION_DDOT":"0.0000000000000","REV_AT_EPOCH":"1219","EPOCH":"2022-07-28T22:00:00.999936","SITE":"AFETR","RCS_SIZE":"LARGE","TLE_LINE1":"1 52648U 22052BC  22209.91667824 -.01067349  00000-0 -13608-1 0  9995","MEAN_ELEMENT_THEORY":"SGP4","CENTER_NAME":"EARTH","ARG_OF_PERICENTER":"41.5546","MEAN_ANOMALY":"335.8384","DECAY_DATE":null,"TIME_SYSTEM":"UTC","ECCENTRICITY":"0.00014320","COUNTRY_CODE":"US","INCLINATION":"53.2175","TLE_LINE2":"2 52648  53.2175  68.2601 0001432  41.5546 335.8384 15.61193060 12197","REF_FRAME":"TEME","FILE":"3523742","CLASSIFICATION_TYPE":"U","SEMIMAJOR_AXIS":"6762.347","OBJECT_TYPE":"PAYLOAD","LAUNCH_DATE":"2022-05-14","MEAN_MOTION_DOT":"-0.01067349"},{"TLE_LINE1":"1 52649U 22052BD  22209.91667824 -.01067377  00000-0 -13603-1 0  9992","MEAN_ELEMENT_THEORY":"SGP4","RCS_SIZE":"LARGE","MEAN_ANOMALY":"338.3260","ARG_OF_PERICENTER":"41.0341","CENTER_NAME":"EARTH","INCLINATION":"53.2175","COUNTRY_CODE":"US","ECCENTRICITY":"0.00014440","DECAY_DATE":null,"TIME_SYSTEM":"UTC","MEAN_MOTION_DOT":"-0.01067377","LAUNCH_DATE":"2022-05-14","OBJECT_TYPE":"PAYLOAD","SEMIMAJOR_AXIS":"6762.318","CLASSIFICATION_TYPE":"U","FILE":"3523742","REF_FRAME":"TEME","TLE_LINE2":"2 52649  53.2175  68.2771 0001444  41.0341 338.3260 15.61203148 12197","GP_ID":"209035423","NORAD_CAT_ID":"52649","ELEMENT_SET_NO":"999","PERIAPSIS":"383.206","MEAN_MOTION":"15.61203148","RA_OF_ASC_NODE":"68.2771","PERIOD":"92.237","EPHEMERIS_TYPE":"0","APOAPSIS":"385.159","OBJECT_NAME":"STARLINK-3868","OBJECT_ID":"2022-052BD","BSTAR":"-0.01360300000000","SITE":"AFETR","EPOCH":"2022-07-28T22:00:00.999936","REV_AT_EPOCH":"1219","MEAN_MOTION_DDOT":"0.0000000000000"},{"ELEMENT_SET_NO":"999","GP_ID":"209035439","NORAD_CAT_ID":"52650","PERIOD":"91.533","EPHEMERIS_TYPE":"0","PERIAPSIS":"348.144","MEAN_MOTION":"15.73209366","RA_OF_ASC_NODE":"68.0140","BSTAR":"-0.00008876800000","APOAPSIS":"351.323","OBJECT_NAME":"STARLINK-3891","OBJECT_ID":"2022-052BE","REV_AT_EPOCH":"1220","MEAN_MOTION_DDOT":"0.0000000000000","SITE":"AFETR","EPOCH":"2022-07-28T22:00:00.999936","MEAN_ELEMENT_THEORY":"SGP4","TLE_LINE1":"1 52650U 22052BE  22209.91667824 -.00013067  00000-0 -88768-4 0  9997","RCS_SIZE":"LARGE","MEAN_ANOMALY":"112.7004","ARG_OF_PERICENTER":"22.1710","CENTER_NAME":"EARTH","INCLINATION":"53.2138","COUNTRY_CODE":"US","ECCENTRICITY":"0.00023620","TIME_SYSTEM":"UTC","DECAY_DATE":null,"CLASSIFICATION_TYPE":"U","FILE":"3523739","REF_FRAME":"TEME","TLE_LINE2":"2 52650  53.2138  68.0140 0002362  22.1710 112.7004 15.73209366 12209","MEAN_MOTION_DOT":"-0.00013067","OBJECT_TYPE":"PAYLOAD","LAUNCH_DATE":"2022-05-14","SEMIMAJOR_AXIS":"6727.868"},{"CLASSIFICATION_TYPE":"U","FILE":"3524113","REF_FRAME":"TEME","TLE_LINE2":"2 52656  53.2151 318.8121 0001485  64.4912 255.6363 15.08863115  1303","MEAN_MOTION_DOT":"-0.00030496","OBJECT_TYPE":"PAYLOAD","LAUNCH_DATE":"2022-05-18","SEMIMAJOR_AXIS":"6917.810","INCLINATION":"53.2151","ECCENTRICITY":"0.00014850","COUNTRY_CODE":"US","DECAY_DATE":null,"TIME_SYSTEM":"UTC","MEAN_ANOMALY":"255.6363","ARG_OF_PERICENTER":"64.4912","CENTER_NAME":"EARTH","MEAN_ELEMENT_THEORY":"SGP4","TLE_LINE1":"1 52656U 22053A   22209.91667824 -.00030496  00000-0 -19049-2 0  9993","RCS_SIZE":"LARGE","REV_AT_EPOCH":"130","MEAN_MOTION_DDOT":"0.0000000000000","SITE":"AFETR","EPOCH":"2022-07-28T22:00:00.999936","BSTAR":"-0.00190490000000","APOAPSIS":"540.702","OBJECT_NAME":"STARLINK-4004","OBJECT_ID":"2022-053A","PERIOD":"95.436","EPHEMERIS_TYPE":"0","PERIAPSIS":"538.647","MEAN_MOTION":"15.08863115","RA_OF_ASC_NODE":"318.8121","ELEMENT_SET_NO":"999","GP_ID":"209069836","NORAD_CAT_ID":"52656"},{"EPOCH":"2022-07-28T22:00:00.999936","SITE":"AFETR","MEAN_MOTION_DDOT":"0.0000000000000","REV_AT_EPOCH":"130","OBJECT_NAME":"STARLINK-4084","OBJECT_ID":"2022-053B","APOAPSIS":"543.065","BSTAR":"-0.00195090000000","RA_OF_ASC_NODE":"318.7368","PERIAPSIS":"541.309","MEAN_MOTION":"15.08041654","EPHEMERIS_TYPE":"0","PERIOD":"95.488","NORAD_CAT_ID":"52657","GP_ID":"209069197","ELEMENT_SET_NO":"999","SEMIMAJOR_AXIS":"6920.322","LAUNCH_DATE":"2022-05-18","OBJECT_TYPE":"PAYLOAD","MEAN_MOTION_DOT":"-0.00030536","TLE_LINE2":"2 52657  53.2138 318.7368 0001269  66.3512 253.5176 15.08041654  1303","REF_FRAME":"TEME","FILE":"3524113","CLASSIFICATION_TYPE":"U","DECAY_DATE":null,"TIME_SYSTEM":"UTC","ECCENTRICITY":"0.00012690","COUNTRY_CODE":"US","INCLINATION":"53.2138","CENTER_NAME":"EARTH","ARG_OF_PERICENTER":"66.3512","MEAN_ANOMALY":"253.5176","RCS_SIZE":"LARGE","TLE_LINE1":"1 52657U 22053B   22209.91667824 -.00030536  00000-0 -19509-2 0  9990","MEAN_ELEMENT_THEORY":"SGP4"},{"EPOCH":"2022-07-28T22:00:00.999936","SITE":"AFETR","MEAN_MOTION_DDOT":"0.0000000000000","REV_AT_EPOCH":"130","OBJECT_NAME":"STARLINK-4082","OBJECT_ID":"2022-053C","APOAPSIS":"540.793","BSTAR":"-0.00188780000000","RA_OF_ASC_NODE":"318.8113","MEAN_MOTION":"15.08848812","PERIAPSIS":"538.643","EPHEMERIS_TYPE":"0","PERIOD":"95.437","GP_ID":"209068944","NORAD_CAT_ID":"52658","ELEMENT_SET_NO":"999","SEMIMAJOR_AXIS":"6917.853","LAUNCH_DATE":"2022-05-18","OBJECT_TYPE":"PAYLOAD","MEAN_MOTION_DOT":"-0.00030214","TLE_LINE2":"2 52658  53.2136 318.8113 0001554  56.2525 243.8889 15.08848812  1304","REF_FRAME":"TEME","CLASSIFICATION_TYPE":"U","FILE":"3524113","DECAY_DATE":null,"TIME_SYSTEM":"UTC","ECCENTRICITY":"0.00015540","COUNTRY_CODE":"US","INCLINATION":"53.2136","CENTER_NAME":"EARTH","ARG_OF_PERICENTER":"56.2525","MEAN_ANOMALY":"243.8889","RCS_SIZE":"LARGE","MEAN_ELEMENT_THEORY":"SGP4","TLE_LINE1":"1 52658U 22053C   22209.91667824 -.00030214  00000-0 -18878-2 0  9992"},{"INCLINATION":"53.2148","COUNTRY_CODE":"US","ECCENTRICITY":"0.00014350","DECAY_DATE":null,"TIME_SYSTEM":"UTC","MEAN_MOTION_DOT":"-0.00042679","OBJECT_TYPE":"PAYLOAD","LAUNCH_DATE":"2022-05-18","SEMIMAJOR_AXIS":"6917.869","CLASSIFICATION_TYPE":"U","FILE":"3524113","REF_FRAME":"TEME","TLE_LINE2":"2 52659  53.2148 318.8110 0001435  58.8428 236.1487 15.08843764  1303","MEAN_ELEMENT_THEORY":"SGP4","TLE_LINE1":"1 52659U 22053D   22209.91667824 -.00042679  00000-0 -26792-2 0  9995","RCS_SIZE":"LARGE","MEAN_ANOMALY":"236.1487","ARG_OF_PERICENTER":"58.8428","CENTER_NAME":"EARTH","APOAPSIS":"540.727","OBJECT_NAME":"STARLINK-3960","OBJECT_ID":"2022-053D","BSTAR":"-0.00267920000000","SITE":"AFETR","EPOCH":"2022-07-28T22:00:00.999936","REV_AT_EPOCH":"130","MEAN_MOTION_DDOT":"0.0000000000000","GP_ID":"209069072","NORAD_CAT_ID":"52659","ELEMENT_SET_NO":"999","MEAN_MOTION":"15.08843764","PERIAPSIS":"538.741","RA_OF_ASC_NODE":"318.8110","PERIOD":"95.437","EPHEMERIS_TYPE":"0"},{"ARG_OF_PERICENTER":"50.9800","MEAN_ANOMALY":"289.1851","CENTER_NAME":"EARTH","TLE_LINE1":"1 52660U 22053E   22209.91667824 -.00029211  00000-0 -18239-2 0  9991","MEAN_ELEMENT_THEORY":"SGP4","RCS_SIZE":"LARGE","MEAN_MOTION_DOT":"-0.00029211","SEMIMAJOR_AXIS":"6917.831","OBJECT_TYPE":"PAYLOAD","LAUNCH_DATE":"2022-05-18","FILE":"3524113","CLASSIFICATION_TYPE":"U","TLE_LINE2":"2 52660  53.2160 318.8130 0001553  50.9800 289.1851 15.08856212  1304","REF_FRAME":"TEME","INCLINATION":"53.2160","DECAY_DATE":null,"TIME_SYSTEM":"UTC","COUNTRY_CODE":"US","ECCENTRICITY":"0.00015530","MEAN_MOTION":"15.08856212","PERIAPSIS":"538.621","RA_OF_ASC_NODE":"318.8130","EPHEMERIS_TYPE":"0","PERIOD":"95.437","NORAD_CAT_ID":"52660","GP_ID":"209069708","ELEMENT_SET_NO":"999","SITE":"AFETR","EPOCH":"2022-07-28T22:00:00.999936","REV_AT_EPOCH":"130","MEAN_MOTION_DDOT":"0.0000000000000","OBJECT_ID":"2022-053E","OBJECT_NAME":"STARLINK-4081","APOAPSIS":"540.770","BSTAR":"-0.00182390000000"},{"PERIAPSIS":"538.703","MEAN_MOTION":"15.08848174","RA_OF_ASC_NODE":"318.8135","EPHEMERIS_TYPE":"0","PERIOD":"95.437","NORAD_CAT_ID":"52661","GP_ID":"209069581","ELEMENT_SET_NO":"999","SITE":"AFETR","EPOCH":"2022-07-28T22:00:00.999936","REV_AT_EPOCH":"130","MEAN_MOTION_DDOT":"0.0000000000000","OBJECT_ID":"2022-053F","OBJECT_NAME":"STARLINK-4042","APOAPSIS":"540.738","BSTAR":"-0.00168060000000","ARG_OF_PERICENTER":"62.1724","MEAN_ANOMALY":"297.9924","CENTER_NAME":"EARTH","TLE_LINE1":"1 52661U 22053F   22209.91667824 -.00026941  00000-0 -16806-2 0  9997","MEAN_ELEMENT_THEORY":"SGP4","RCS_SIZE":"LARGE","MEAN_MOTION_DOT":"-0.00026941","SEMIMAJOR_AXIS":"6917.855","OBJECT_TYPE":"PAYLOAD","LAUNCH_DATE":"2022-05-18","CLASSIFICATION_TYPE":"U","FILE":"3524113","TLE_LINE2":"2 52661  53.2164 318.8135 0001471  62.1724 297.9924 15.08848174  1309","REF_FRAME":"TEME","INCLINATION":"53.2164","TIME_SYSTEM":"UTC","DECAY_DATE":null,"COUNTRY_CODE":"US","ECCENTRICITY":"0.00014710"},{"EPOCH":"2022-07-28T22:00:00.999936","SITE":"AFETR","MEAN_MOTION_DDOT":"0.0000000000000","REV_AT_EPOCH":"130","APOAPSIS":"540.866","OBJECT_NAME":"STARLINK-4044","OBJECT_ID":"2022-053G","BSTAR":"-0.00164060000000","RA_OF_ASC_NODE":"318.8170","MEAN_MOTION":"15.08851005","PERIAPSIS":"538.558","PERIOD":"95.437","EPHEMERIS_TYPE":"0","GP_ID":"209069328","NORAD_CAT_ID":"52662","ELEMENT_SET_NO":"999","OBJECT_TYPE":"PAYLOAD","LAUNCH_DATE":"2022-05-18","SEMIMAJOR_AXIS":"6917.847","MEAN_MOTION_DOT":"-0.00026311","REF_FRAME":"TEME","TLE_LINE2":"2 52662  53.2185 318.8170 0001668  41.1826 358.9513 15.08851005  1309","CLASSIFICATION_TYPE":"U","FILE":"3524113","COUNTRY_CODE":"US","ECCENTRICITY":"0.00016680","TIME_SYSTEM":"UTC","DECAY_DATE":null,"INCLINATION":"53.2185","CENTER_NAME":"EARTH","MEAN_ANOMALY":"358.9513","ARG_OF_PERICENTER":"41.1826","RCS_SIZE":"LARGE","TLE_LINE1":"1 52662U 22053G   22209.91667824 -.00026311  00000-0 -16406-2 0  9995","MEAN_ELEMENT_THEORY":"SGP4"}];
